ATLAS CENTAUR R/B       
1 06155U 72065B   26015.92107483  .00000708  00000+0  10000-3 0  9993
2 06155  35.0009 254.9585 0034589 285.9336  73.7554 14.77510014833453
SL-8 R/B                
1 08459U 75112B   26015.70700644  .00000152  00000+0  58544-4 0  9991
2 08459  74.0614 116.3806 0016391 224.2449 135.7396 14.38170242624257
SL-3 R/B                
1 10114U 77057B   26015.92350385  .00008126  00000+0  18093-3 0  9992
2 10114  97.5697 185.6105 0008523 110.6713 249.5450 15.43867350660187
SEASAT 1                
1 10967U 78064A   26015.92436177  .00000194  00000+0  92703-4 0  9999
2 10967 108.0158  14.7626 0001182 277.6478  82.4533 14.46103677498888
SL-14 R/B               
1 11267U 79011B   26015.79505936  .00000485  00000+0  45520-4 0  9999
2 11267  82.5258 146.7468 0014923 230.9106 129.0788 14.91822988520896
SL-8 R/B                
1 11574U 79089B   26015.89302262  .00000274  00000+0  90784-4 0  9991
2 11574  74.0674 188.7666 0015527  10.3950 349.7524 14.42307952428496
SL-14 R/B               
1 11672U 80005B   26015.97472999  .00000499  00000+0  48038-4 0  9998
2 11672  82.5149 357.2256 0015311 345.3859  14.6915 14.90841592468632
SL-8 R/B                
1 12139U 81003B   26015.85066735  .00019505  00000+0  51624-3 0  9992
2 12139  82.9385 338.8047 0271486   3.1626 357.1235 15.08515644306703
SL-3 R/B                
1 12465U 81046B   26015.93636694  .00007799  00000+0  19086-3 0  9995
2 12465  81.2325 353.0002 0018682 197.5103 162.5497 15.40428594430301
SL-3 R/B                
1 12904U 81103B   26015.94706031  .00002815  00000+0  12667-3 0  9993
2 12904  81.1593 275.2818 0014371 100.6319 259.6532 15.20682278965210
SL-3 R/B                
1 13068U 82013B   26015.97836722  .00002862  00000+0  12557-3 0  9990
2 13068  81.1724 222.5227 0022854 359.9748   0.1478 15.21408544396339
SL-3 R/B                
1 13154U 82039B   26015.90687604  .00001641  00000+0  99233-4 0  9991
2 13154  81.1674 276.7794 0029895 137.2581 223.0977 15.09749237373678
