CCSDS_OMM_VERS = 2.0
CREATION_DATE  = 
ORIGINATOR     = 

OBJECT_NAME    = ATLAS CENTAUR R/B
OBJECT_ID      = 1972-065B
CENTER_NAME    = EARTH
REF_FRAME      = TEME
TIME_SYSTEM    = UTC
MEAN_ELEMENT_THEORY = SGP/SGP4

EPOCH          = 2026-01-15T22:06:20.865312
MEAN_MOTION    = 14.77510014
ECCENTRICITY   = .00345899
INCLINATION    = 35.0009
RA_OF_ASC_NODE = 254.9585
ARG_OF_PERICENTER = 285.9336
MEAN_ANOMALY   = 73.7554

EPHEMERIS_TYPE = 0
CLASSIFICATION_TYPE = U
NORAD_CAT_ID   = 6155
ELEMENT_SET_NO = 999
REV_AT_EPOCH   = 83345
BSTAR          = .10000036E-3
MEAN_MOTION_DOT = .708E-5
MEAN_MOTION_DDOT = 0

CCSDS_OMM_VERS = 2.0
CREATION_DATE  = 
ORIGINATOR     = 

OBJECT_NAME    = SL-8 R/B
OBJECT_ID      = 1975-112B
CENTER_NAME    = EARTH
REF_FRAME      = TEME
TIME_SYSTEM    = UTC
MEAN_ELEMENT_THEORY = SGP/SGP4

EPOCH          = 2026-01-15T16:58:05.356416
MEAN_MOTION    = 14.38170242
ECCENTRICITY   = .00163911
INCLINATION    = 74.0614
RA_OF_ASC_NODE = 116.3806
ARG_OF_PERICENTER = 224.2449
MEAN_ANOMALY   = 135.7396

EPHEMERIS_TYPE = 0
CLASSIFICATION_TYPE = U
NORAD_CAT_ID   = 8459
ELEMENT_SET_NO = 999
REV_AT_EPOCH   = 62425
BSTAR          = .58544458E-4
MEAN_MOTION_DOT = .152E-5
MEAN_MOTION_DDOT = 0

CCSDS_OMM_VERS = 2.0
CREATION_DATE  = 
ORIGINATOR     = 

OBJECT_NAME    = SL-3 R/B
OBJECT_ID      = 1977-057B
CENTER_NAME    = EARTH
REF_FRAME      = TEME
TIME_SYSTEM    = UTC
MEAN_ELEMENT_THEORY = SGP/SGP4

EPOCH          = 2026-01-15T22:09:50.732640
MEAN_MOTION    = 15.43867350
ECCENTRICITY   = .00085235
INCLINATION    = 97.5697
RA_OF_ASC_NODE = 185.6105
ARG_OF_PERICENTER = 110.6713
MEAN_ANOMALY   = 249.5450

EPHEMERIS_TYPE = 0
CLASSIFICATION_TYPE = U
NORAD_CAT_ID   = 10114
ELEMENT_SET_NO = 999
REV_AT_EPOCH   = 66018
BSTAR          = .18093363E-3
MEAN_MOTION_DOT = .8126E-4
MEAN_MOTION_DDOT = 0

CCSDS_OMM_VERS = 2.0
CREATION_DATE  = 
ORIGINATOR     = 

OBJECT_NAME    = SEASAT 1
OBJECT_ID      = 1978-064A
CENTER_NAME    = EARTH
REF_FRAME      = TEME
TIME_SYSTEM    = UTC
MEAN_ELEMENT_THEORY = SGP/SGP4

EPOCH          = 2026-01-15T22:11:04.856928
MEAN_MOTION    = 14.46103677
ECCENTRICITY   = .00011821
INCLINATION    = 108.0158
RA_OF_ASC_NODE = 14.7626
ARG_OF_PERICENTER = 277.6478
MEAN_ANOMALY   = 82.4533

EPHEMERIS_TYPE = 0
CLASSIFICATION_TYPE = U
NORAD_CAT_ID   = 10967
ELEMENT_SET_NO = 999
REV_AT_EPOCH   = 49888
BSTAR          = .92702592E-4
MEAN_MOTION_DOT = .194E-5
MEAN_MOTION_DDOT = 0

CCSDS_OMM_VERS = 2.0
CREATION_DATE  = 
ORIGINATOR     = 

OBJECT_NAME    = SL-14 R/B
OBJECT_ID      = 1979-011B
CENTER_NAME    = EARTH
REF_FRAME      = TEME
TIME_SYSTEM    = UTC
MEAN_ELEMENT_THEORY = SGP/SGP4

EPOCH          = 2026-01-15T19:04:53.128704
MEAN_MOTION    = 14.91822988
ECCENTRICITY   = .00149237
INCLINATION    = 82.5258
RA_OF_ASC_NODE = 146.7468
ARG_OF_PERICENTER = 230.9106
MEAN_ANOMALY   = 129.0788

EPHEMERIS_TYPE = 0
CLASSIFICATION_TYPE = U
NORAD_CAT_ID   = 11267
ELEMENT_SET_NO = 999
REV_AT_EPOCH   = 52089
BSTAR          = .45520252E-4
MEAN_MOTION_DOT = .485E-5
MEAN_MOTION_DDOT = 0

CCSDS_OMM_VERS = 2.0
CREATION_DATE  = 
ORIGINATOR     = 

OBJECT_NAME    = SL-8 R/B
OBJECT_ID      = 1979-089B
CENTER_NAME    = EARTH
REF_FRAME      = TEME
TIME_SYSTEM    = UTC
MEAN_ELEMENT_THEORY = SGP/SGP4

EPOCH          = 2026-01-15T21:25:57.154368
MEAN_MOTION    = 14.42307952
ECCENTRICITY   = .00155278
INCLINATION    = 74.0674
RA_OF_ASC_NODE = 188.7666
ARG_OF_PERICENTER = 10.3950
MEAN_ANOMALY   = 349.7524

EPHEMERIS_TYPE = 0
CLASSIFICATION_TYPE = U
NORAD_CAT_ID   = 11574
ELEMENT_SET_NO = 999
REV_AT_EPOCH   = 42849
BSTAR          = .90783761E-4
MEAN_MOTION_DOT = .274E-5
MEAN_MOTION_DDOT = 0

CCSDS_OMM_VERS = 2.0
CREATION_DATE  = 
ORIGINATOR     = 

OBJECT_NAME    = SL-14 R/B
OBJECT_ID      = 1980-005B
CENTER_NAME    = EARTH
REF_FRAME      = TEME
TIME_SYSTEM    = UTC
MEAN_ELEMENT_THEORY = SGP/SGP4

EPOCH          = 2026-01-15T23:23:36.671136
MEAN_MOTION    = 14.90841592
ECCENTRICITY   = .00153116
INCLINATION    = 82.5149
RA_OF_ASC_NODE = 357.2256
ARG_OF_PERICENTER = 345.3859
MEAN_ANOMALY   = 14.6915

EPHEMERIS_TYPE = 0
CLASSIFICATION_TYPE = U
NORAD_CAT_ID   = 11672
ELEMENT_SET_NO = 999
REV_AT_EPOCH   = 46863
BSTAR          = .48037921E-4
MEAN_MOTION_DOT = .499E-5
MEAN_MOTION_DDOT = 0

CCSDS_OMM_VERS = 2.0
CREATION_DATE  = 
ORIGINATOR     = 

OBJECT_NAME    = SL-8 R/B
OBJECT_ID      = 1981-003B
CENTER_NAME    = EARTH
REF_FRAME      = TEME
TIME_SYSTEM    = UTC
MEAN_ELEMENT_THEORY = SGP/SGP4

EPOCH          = 2026-01-15T20:24:57.659040
MEAN_MOTION    = 15.08515644
ECCENTRICITY   = .02714861
INCLINATION    = 82.9385
RA_OF_ASC_NODE = 338.8047
ARG_OF_PERICENTER = 3.1626
MEAN_ANOMALY   = 357.1235

EPHEMERIS_TYPE = 0
CLASSIFICATION_TYPE = U
NORAD_CAT_ID   = 12139
ELEMENT_SET_NO = 999
REV_AT_EPOCH   = 30670
BSTAR          = .51624391E-3
MEAN_MOTION_DOT = .19505E-3
MEAN_MOTION_DDOT = 0

CCSDS_OMM_VERS = 2.0
CREATION_DATE  = 
ORIGINATOR     = 

OBJECT_NAME    = SL-3 R/B
OBJECT_ID      = 1981-046B
CENTER_NAME    = EARTH
REF_FRAME      = TEME
TIME_SYSTEM    = UTC
MEAN_ELEMENT_THEORY = SGP/SGP4

EPOCH          = 2026-01-15T22:28:22.103616
MEAN_MOTION    = 15.40428594
ECCENTRICITY   = .00186826
INCLINATION    = 81.2325
RA_OF_ASC_NODE = 353.0002
ARG_OF_PERICENTER = 197.5103
MEAN_ANOMALY   = 162.5497

EPHEMERIS_TYPE = 0
CLASSIFICATION_TYPE = U
NORAD_CAT_ID   = 12465
ELEMENT_SET_NO = 999
REV_AT_EPOCH   = 43030
BSTAR          = .19085693E-3
MEAN_MOTION_DOT = .7799E-4
MEAN_MOTION_DDOT = 0

CCSDS_OMM_VERS = 2.0
CREATION_DATE  = 
ORIGINATOR     = 

OBJECT_NAME    = SL-3 R/B
OBJECT_ID      = 1981-103B
CENTER_NAME    = EARTH
REF_FRAME      = TEME
TIME_SYSTEM    = UTC
MEAN_ELEMENT_THEORY = SGP/SGP4

EPOCH          = 2026-01-15T22:43:46.010784
MEAN_MOTION    = 15.20682278
ECCENTRICITY   = .0014371
INCLINATION    = 81.1593
RA_OF_ASC_NODE = 275.2818
ARG_OF_PERICENTER = 100.6319
MEAN_ANOMALY   = 259.6532

EPHEMERIS_TYPE = 0
CLASSIFICATION_TYPE = U
NORAD_CAT_ID   = 12904
ELEMENT_SET_NO = 999
REV_AT_EPOCH   = 96521
BSTAR          = .12667349E-3
MEAN_MOTION_DOT = .2815E-4
MEAN_MOTION_DDOT = 0

CCSDS_OMM_VERS = 2.0
CREATION_DATE  = 
ORIGINATOR     = 

OBJECT_NAME    = SL-3 R/B
OBJECT_ID      = 1982-013B
CENTER_NAME    = EARTH
REF_FRAME      = TEME
TIME_SYSTEM    = UTC
MEAN_ELEMENT_THEORY = SGP/SGP4

EPOCH          = 2026-01-15T23:28:50.927808
MEAN_MOTION    = 15.21408544
ECCENTRICITY   = .0022854
INCLINATION    = 81.1724
RA_OF_ASC_NODE = 222.5227
ARG_OF_PERICENTER = 359.9748
MEAN_ANOMALY   = 0.1478

EPHEMERIS_TYPE = 0
CLASSIFICATION_TYPE = U
NORAD_CAT_ID   = 13068
ELEMENT_SET_NO = 999
REV_AT_EPOCH   = 39633
BSTAR          = .12556846E-3
MEAN_MOTION_DOT = .2862E-4
MEAN_MOTION_DDOT = 0

CCSDS_OMM_VERS = 2.0
CREATION_DATE  = 
ORIGINATOR     = 

OBJECT_NAME    = SL-3 R/B
OBJECT_ID      = 1982-039B
CENTER_NAME    = EARTH
REF_FRAME      = TEME
TIME_SYSTEM    = UTC
MEAN_ELEMENT_THEORY = SGP/SGP4

EPOCH          = 2026-01-15T21:45:54.089856
MEAN_MOTION    = 15.09749237
ECCENTRICITY   = .0029895
INCLINATION    = 81.1674
RA_OF_ASC_NODE = 276.7794
ARG_OF_PERICENTER = 137.2581
MEAN_ANOMALY   = 223.0977

EPHEMERIS_TYPE = 0
CLASSIFICATION_TYPE = U
NORAD_CAT_ID   = 13154
ELEMENT_SET_NO = 999
REV_AT_EPOCH   = 37367
BSTAR          = .99233189E-4
MEAN_MOTION_DOT = .1641E-4
MEAN_MOTION_DDOT = 0

